OBJECT_NAME,OBJECT_ID,EPOCH,MEAN_MOTION,ECCENTRICITY,INCLINATION,RA_OF_ASC_NODE,ARG_OF_PERICENTER,MEAN_ANOMALY,EPHEMERIS_TYPE,CLASSIFICATION_TYPE,NORAD_CAT_ID,ELEMENT_SET_NO,REV_AT_EPOCH,BSTAR,MEAN_MOTION_DOT,MEAN_MOTION_DDOT
QPS-SAR-9 (SUSANOO-I),2025-050A,2026-07-21T06:26:58.971840,15.03426900,.00044536,42.0190,273.8650,359.4840,0.5982,0,U,63205,999,7409,.23427263E-3,.3054E-4,0
SUPERVIEW NEO-3 02,2025-051A,2026-07-21T06:31:42.750912,15.22352526,.00023772,97.4501,281.2054,88.8574,271.2935,0,U,63208,999,7502,.25743773E-3,.587E-4,0
TIANYAN 23,2025-051B,2026-07-21T06:34:05.658240,15.50681784,.00027492,97.4505,290.6304,329.7169,30.3923,0,U,63209,999,7564,.51001315E-3,.29249E-3,0
JINJUSAT-1B,2025-052A,2026-07-21T04:42:21.950496,15.34472596,.00025151,97.3955,99.0140,11.4987,348.6313,0,U,63210,999,7531,.38873928E-3,.12909E-3,0
NUSHSAT1,2025-052B,2026-07-20T12:44:59.301024,15.37171166,.00025709,97.3930,99.0343,28.7833,331.3553,0,U,63211,999,7526,.3643957E-3,.13188E-3,0
IOD-1,2025-052C,2026-07-20T05:31:31.855584,15.57467985,.00031706,97.3762,104.0001,106.7982,253.3621,0,U,63212,999,7562,.54121607E-3,.39777E-3,0
TEVEL2-4,2025-052D,2026-07-21T03:23:18.339072,15.35700911,.00030127,97.3852,98.6089,40.1902,319.9564,0,U,63213,999,7532,.41714681E-3,.14414E-3,0
TEVEL2-5,2025-052E,2026-07-21T03:58:35.141664,15.35512263,.00030159,97.3850,98.5711,42.3199,317.8277,0,U,63214,999,7532,.40482525E-3,.13901E-3,0
TEVEL2-6,2025-052F,2026-07-20T23:35:56.384736,15.35470217,.00031162,97.3855,98.3732,44.6176,315.5318,0,U,63215,999,7529,.40615668E-3,.13929E-3,0
BOTSAT-1,2025-052G,2026-07-20T16:50:17.427840,15.27651332,.00034102,97.3840,95.2236,46.3914,313.7608,0,U,63216,999,7507,.19269354E-3,.5134E-4,0
TEVEL2-1,2025-052H,2026-07-20T23:01:26.909472,15.34894951,.00037459,97.3828,97.9321,47.7905,312.3656,0,U,63217,999,7527,.37939109E-3,.12768E-3,0
TEVEL2-3,2025-052J,2026-07-21T03:33:27.389088,15.34965852,.00035446,97.3837,98.1475,49.1326,311.0224,0,U,63218,999,7530,.40702792E-3,.13736E-3,0
TEVEL2-2,2025-052K,2026-07-20T23:01:34.302720,15.34907749,.00038298,97.3828,97.9353,47.8008,312.3560,0,U,63219,999,7527,.38821513E-3,.13073E-3,0
AEROCUBE 18A,2025-052L,2026-07-21T03:45:41.457312,15.24798311,.00046077,97.3920,95.1981,30.2033,329.9470,0,U,63220,999,7507,.17579545E-3,.4289E-4,0
TRANSPORTER-13 OBJECT M,2025-052M,2026-07-20T06:35:22.714944,15.22132264,.00045465,97.3843,92.8342,47.5668,312.5952,0,U,63221,999,7487,.89349761E-4,.1979E-4,0
AEROCUBE 18B,2025-052N,2026-07-20T14:22:31.182528,15.24693331,.00052468,97.3929,94.6259,34.1469,326.0106,0,U,63222,999,7498,.14002247E-3,.3391E-4,0
DROID.002,2025-052P,2026-07-21T04:05:04.515360,15.23048282,.00049649,97.3889,94.4933,40.1069,320.0533,0,U,63223,999,7504,.17800736E-3,.4122E-4,0
TOMORROW-S6,2025-052R,2026-07-21T03:29:32.077824,15.22673779,.00060668,97.3968,94.5246,34.2806,325.8822,0,U,63225,999,7501,.14063209E-3,.3206E-4,0
ETIHAD-SAT,2025-052S,2026-07-21T03:31:02.739936,15.22321669,.00062052,97.3917,94.1201,40.5057,319.6640,0,U,63226,999,7500,.12726531E-3,.2864E-4,0
TRANSPORTER-13 OBJECT U,2025-052U,2026-07-21T05:51:18.039456,15.23905013,.00062376,97.3873,94.4986,46.5491,313.6264,0,U,63228,999,7505,.18103519E-3,.4303E-4,0
SPACEEYE-T1,2025-052V,2026-07-20T23:25:10.598304,15.22745383,.00060403,97.3907,93.9776,48.1336,312.0416,0,U,63229,999,7498,.13998172E-3,.3198E-4,0
ION SCV-017,2025-052W,2026-07-21T03:45:21.939552,15.28045514,.00200317,97.3864,97.0420,291.6676,68.2430,0,U,63230,999,7522,.11329364E-3,.304E-4,0
M-SEL/CORTEZ,2025-052X,2026-07-21T03:49:13.957248,15.26618974,.00061163,97.3873,95.3261,47.4382,312.7372,0,U,63231,999,7510,.23542034E-3,.6097E-4,0
SPHINX/FRAZIER,2025-052Y,2026-07-21T03:25:19.261920,15.24308495,.00070294,97.3907,94.6790,45.0966,315.0841,0,U,63232,999,7504,.18673911E-3,.4496E-4,0
LIZZIESAT-3 (LS-3),2025-052Z,2026-07-21T03:39:24.719616,15.22029838,.00073661,97.3869,93.3923,53.6720,306.5195,0,U,63233,999,7497,.15594443E-3,.3496E-4,0
TOMORROW-S5,2025-052AA,2026-07-20T06:17:56.673600,15.22711550,.00080718,97.3945,93.4339,47.3207,312.8708,0,U,63234,999,7487,.11112689E-3,.2522E-4,0
OTP-2,2025-052AB,2026-07-21T04:02:16.566720,15.24387598,.00078477,97.3823,94.0934,54.6944,305.5027,0,U,63235,999,7504,.2383353E-3,.5773E-4,0
ORBASTRO-TR5,2025-052AC,2026-07-20T22:54:37.090080,15.22317397,.00052811,97.3791,93.0077,54.8007,305.3724,0,U,63236,999,7495,.13808231E-3,.3113E-4,0
TEVEL2-9,2025-052AD,2026-07-20T06:19:12.067968,15.32827728,.00072091,97.3892,96.5399,42.4598,317.7200,0,U,63237,999,7509,.31277913E-3,.9848E-4,0
TEVEL2-7,2025-052AE,2026-07-21T03:49:57.011232,15.32531062,.00072173,97.3894,97.3362,40.1547,320.0227,0,U,63238,999,7522,.38802823E-3,.12126E-3,0
TEVEL2-8,2025-052AF,2026-07-21T04:02:18.216096,15.32516741,.00072622,97.3894,97.3210,40.9817,319.1970,0,U,63239,999,7522,.39070312E-3,.12205E-3,0
AL MUNTHER,2025-052AG,2026-07-20T06:46:37.185312,15.32824827,.00076298,97.3835,96.0156,48.0596,312.1295,0,U,63240,999,7508,.3356592E-3,.10575E-3,0
TRANSPORTER-13 OBJECT AH,2025-052AH,2026-07-20T06:47:57.266016,15.28292934,.0008266,97.3801,94.4275,53.7818,306.4185,0,U,63241,999,7499,.22403391E-3,.6105E-4,0
HERMES-1,2025-052AJ,2026-07-21T03:41:27.318624,15.21856828,.00090308,97.3854,93.1614,70.9353,289.2861,0,U,63242,999,7496,.15763407E-3,.3518E-4,0
HERMES-2,2025-052AK,2026-07-21T03:32:28.525632,15.30606252,.00048307,97.3849,96.8944,22.8014,337.3441,0,U,63243,999,7521,.37416199E-3,.11002E-3,0
PANDORE,2025-052AL,2026-07-21T03:38:41.057376,14.95165215,.00064041,97.6857,92.8368,83.0256,277.1693,0,U,63244,999,7368,.13685845E-3,.1446E-4,0
BUCCANEER MM,2025-052AM,2026-07-21T05:45:52.687296,14.94831369,.00057066,97.6822,92.5500,96.9851,263.2018,0,U,63245,999,7368,.20834573E-3,.2212E-4,0
LEMUR-2-LEIA-PHILIP,2025-052AN,2026-07-21T03:37:11.653248,14.97395495,.00050545,97.6788,93.5247,107.2779,252.8997,0,U,63246,999,7375,.47868711E-4,.499E-5,0
EZIE-A,2025-052AP,2026-07-21T03:00:07.754400,14.97584137,.00051377,97.6867,93.7443,84.7542,275.4266,0,U,63247,999,7374,.25715214E-3,.2947E-4,0
LEMUR-2-LIA-MARTIN,2025-052AQ,2026-07-21T03:25:38.560224,14.98051983,.000487,97.6847,94.0459,75.2895,284.8867,0,U,63248,999,7376,.19400827E-3,.2236E-4,0
EZIE-C,2025-052AR,2026-07-20T12:27:52.094016,14.97509107,.00052685,97.6838,93.0297,95.7294,264.4529,0,U,63249,999,7365,.26223964E-3,.3E-4,0
EZIE-B,2025-052AS,2026-07-21T02:47:57.454080,14.97444873,.0005814,97.6864,93.7951,81.6852,278.5029,0,U,63250,999,7374,.34836554E-3,.3999E-4,0
UVSQ-SAT NG,2025-052AT,2026-07-20T12:21:30.698496,14.95522174,.00045712,97.6813,92.3186,104.3683,255.8046,0,U,63251,999,7361,.15658059E-3,.1678E-4,0
ARVAKER-1,2025-052AU,2026-07-21T03:48:33.918624,14.94674997,.00040935,97.6833,92.6559,98.3745,261.7940,0,U,63252,999,7368,.12555662E-3,.1305E-4,0
ICEYE-X48,2025-052AV,2026-07-20T10:53:03.470496,14.98147333,.00043334,97.6841,93.1292,91.6540,268.5179,0,U,63253,999,7365,.18036814E-3,.208E-4,0
YAM-8,2025-052AW,2026-07-21T04:35:59.425728,15.11243945,.00034579,97.6905,103.8946,92.8198,267.3427,0,U,63254,999,7440,.21304114E-3,.3516E-4,0
ICEYE-X50,2025-052AX,2026-07-21T06:50:37.351392,14.95374384,.00033985,97.6846,93.5199,90.9842,269.1769,0,U,63255,999,7374,.70561866E-4,.722E-5,0
FIRESAT 0 (MUSAT-4),2025-052AY,2026-07-21T02:47:54.355776,14.92989504,.00020598,97.6923,92.5408,105.6004,254.5443,0,U,63256,999,7365,.97775158E-4,.961E-5,0
ICEYE-X51,2025-052AZ,2026-07-21T04:37:00.906240,15.00888946,.00020743,97.7620,97.2300,63.1436,297.0000,0,U,63257,999,7390,.23204051E-3,.2893E-4,0
ICEYE-X46,2025-052BA,2026-07-21T03:33:10.584288,14.95377472,.00015269,97.6850,93.3849,81.2835,278.8559,0,U,63258,999,7372,.7217535E-4,.74E-5,0
LEMUR-2-DELOITTE-1,2025-052BB,2026-07-21T02:58:53.558400,14.97814493,.00025102,97.6886,94.3577,55.5698,304.5761,0,U,63259,999,7377,.25548979E-3,.2944E-4,0
TRANSPORTER-13 OBJECT BC,2025-052BC,2026-07-20T23:00:10.180224,14.94761765,.00013285,97.6802,92.6427,153.5892,206.5396,0,U,63260,999,7367,.77710248E-4,.788E-5,0
LEMUR-2-EMERSONROSE,2025-052BD,2026-07-21T03:10:43.414752,14.99322635,.00023654,97.6884,94.9926,45.2798,314.8618,0,U,63261,999,7382,.22730758E-3,.2718E-4,0
LEMUR-2-MARACHE-FRAN,2025-052BE,2026-07-21T03:37:37.390080,15.00339650,.00059086,97.6813,95.3832,228.7343,131.3372,0,U,63262,999,7385,.22929844E-3,.2818E-4,0
SOAP,2025-052BF,2026-07-21T06:01:50.492640,14.96946984,.00015319,97.6819,93.9756,160.9479,199.1801,0,U,63263,999,7378,.20962224E-3,.2351E-4,0
LEMUR-2-THEFALCONER,2025-052BG,2026-07-21T03:44:02.432544,14.97581436,.00007838,97.6812,93.9722,214.7460,145.3711,0,U,63264,999,7377,.17170035E-3,.1948E-4,0
STARLINK-11654 [DTC],2025-053A,2026-07-21T05:43:01.561728,15.70866985,.00011215,43.0011,27.2049,277.7653,82.3088,0,U,63265,999,7867,.99816073E-3,.129793E-2,0
STARLINK-11659 [DTC],2025-053B,2026-07-21T05:35:23.109504,15.70863193,.00006887,43.0007,27.1618,287.6894,72.3899,0,U,63266,999,7867,.9575355E-3,.12439E-2,0
STARLINK-11653 [DTC],2025-053C,2026-07-20T21:04:14.835936,15.70932918,.00022844,43.0018,29.6722,263.7819,96.2788,0,U,63267,999,7861,.10690514E-2,.139603E-2,0
STARLINK-11641 [DTC],2025-053D,2026-07-20T13:56:50.015616,15.70955925,.00040334,43.0042,30.8635,264.2739,95.7669,0,U,63268,999,7857,.11287165E-2,.147742E-2,0
STARLINK-11638 [DTC],2025-053E,2026-07-20T21:42:17.558496,15.70992093,.00017815,43.0016,28.9888,282.2317,77.8351,0,U,63269,999,7862,.10607479E-2,.138843E-2,0
STARLINK-11614 [DTC],2025-053F,2026-07-20T05:41:00.279456,15.70899998,.00020884,43.0005,33.4656,280.0137,80.0495,0,U,63270,999,7851,.83766965E-3,.10873E-2,0
STARLINK-11620 [DTC],2025-053G,2026-07-20T06:03:57.029760,15.70875103,.00007156,43.0007,33.5948,305.9137,54.1664,0,U,63271,999,7851,.13045428E-2,.170674E-2,0
STARLINK-11619 [DTC],2025-053H,2026-07-20T22:12:51.413184,15.70969650,.00048481,43.0033,29.1640,268.5852,91.4460,0,U,63272,999,7862,.12222353E-2,.160384E-2,0
